# From MPEC 2020-KF5
C/2020 K2 (PANSTARRS),p,12/30.6730/2018,89.7510,34.2348,8.177098,285.5819,2000,6.5,4.0
# From MPEC 2020-KF9
C/2020 K3 (Leonard),p,06/01.0032/2020,129.0152,64.4924,1.583069,28.3546,2000,14.5,4.0
# From MPC xxxxx
C/2020 K4 (PANSTARRS),p,03/09.4622/2020,126.2941,311.9103,1.794215,264.1143,2000,16.5,4.0
# From  98, 1083
1P/Halley,e,162.3069,58.2569,111.1960,17.87027,0.0130469,0.96619634,163.8647,06/09.0/2020,2000,g  4.0,6.0
# From MPC118097
2P/Encke,e,11.7646,334.5517,186.5625,2.215284,0.2989235,0.84800131,354.9646,06/09.0/2020,2000,g 11.5,6.0
# From MPEC 2015-A10
4P/Faye,e,8.0098,193.2218,206.8150,3.826614,0.1316686,0.57800837,299.8100,06/09.0/2020,2000,g  8.0,6.0
# From MPEC 2015-S97
6P/d'Arrest,e,19.5115,138.9325,178.0846,3.498141,0.1506427,0.61256282,289.8320,06/09.0/2020,2000,g  9.0,4.0
# From MPEC 2015-E14
7P/Pons-Winnecke,e,22.3646,93.3806,172.5683,3.415312,0.1561559,0.63854913,305.0208,06/09.0/2020,2000,g  9.0,4.0
# From MPC 75715
8P/Tuttle,e,54.9115,270.2043,207.4936,5.702260,0.0723825,0.82003122,327.8033,06/09.0/2020,2000,g  9.0,4.0
# From MPEC 2019-JE2
9P/Tempel,e,10.4724,68.7352,179.3138,3.147300,0.1765212,0.50951767,248.1270,06/09.0/2020,2000,g  9.0,4.0
# From MPC114607
10P/Tempel,e,12.0398,117.8099,195.5118,3.060774,0.1840591,0.53848794,306.9356,06/09.0/2020,2000,g  5.0,10.0
# From MPEC 2017-L52
11P/Tempel-Swift-LINEAR,e,14.4204,238.9223,167.9239,3.283506,0.1656523,0.57699840,331.8053,06/09.0/2020,2000,g  9.0,4.0
# From  27, 604
12P/Pons-Brooks,e,74.0711,255.7069,199.0495,17.08281,0.0139593,0.95428081,340.2868,06/09.0/2020,2000,g  5.0,6.0
# From  27, 604
13P/Olbers,e,44.6270,85.8448,64.5623,16.67026,0.0144807,0.92973242,338.5187,06/09.0/2020,2000,g  5.0,6.0
# From MPC100283
14P/Wolf,e,27.9018,202.0827,158.9764,4.259212,0.1121270,0.35658401,103.1496,06/09.0/2020,2000,g  5.5,12.0
# From MPC 92276
15P/Finlay,e,6.7976,13.7217,347.8370,3.504105,0.1502583,0.71693803,299.9586,06/09.0/2020,2000,g 12.0,4.0
# From MPC 92276
16P/Brooks,e,3.0098,138.8839,245.1318,3.660817,0.1407139,0.48711466,315.9582,06/09.0/2020,2000,g  7.5,10.0
# From MPC114607
17P/Holmes,e,19.0254,326.6333,24.5061,3.637970,0.1420415,0.42825232,323.6495,06/09.0/2020,2000,g 10.0,6.0
# From MPC 92984
19P/Borrelly,e,29.4482,74.4600,351.8053,3.604571,0.1440203,0.63869928,273.2406,06/09.0/2020,2000,g  4.5,10.0
# From MPC111773
21P/Giacobini-Zinner,e,32.0102,195.3679,172.8460,3.496101,0.1507746,0.71061377,96.1410,06/09.0/2020,2000,g  9.0,6.0
# From MPC 94283
22P/Kopff,e,4.7419,120.8368,162.9560,3.443089,0.1542701,0.54889204,260.1920,06/09.0/2020,2000,g  3.0,10.4
# From MPC 14747
23P/Brorsen-Metcalf,e,19.1400,312.3920,128.8485,16.95566,0.0141167,0.97097226,0.0000,08/13.1878/1989,2000,g 10.0,6.0
# From MPC110085
24P/Schaumasse,e,11.6855,79.4165,57.7320,4.061290,0.1204226,0.70826349,112.5094,06/09.0/2020,2000,g  6.5,14.0
# From MPC 94674
26P/Grigg-Skjellerup,e,22.4452,211.5374,2.1948,3.013870,0.1883724,0.64068506,116.0964,06/09.0/2020,2000,g 12.0,16.0
# From MPC 78188
27P/Crommelin,e,29.1245,250.5775,196.0012,9.190835,0.0353730,0.91793661,114.6938,06/09.0/2020,2000,g 12.0,8.0
# From MPEC 2020-HN5
28P/Neujmin,e,14.3111,346.3439,347.4288,6.973023,0.0535269,0.77370363,345.2301,06/09.0/2020,2000,g  8.5,6.0
# From MPEC 2020-HN5
29P/Schwassmann-Wachmann,e,9.3669,312.3765,48.1968,6.032532,0.0665204,0.04399111,30.1722,06/09.0/2020,2000,g  4.0,4.0
# From MPC110085
30P/Reinmuth,e,8.4590,118.9267,12.5239,3.718184,0.1374700,0.52039085,139.5676,06/09.0/2020,2000,g  9.5,6.0
# From MPC108597
31P/Schwassmann-Wachmann,e,4.5473,114.1142,18.2878,4.241617,0.1128254,0.19247436,38.2783,06/09.0/2020,2000,g  5.0,8.0
# From MPC 92276
32P/Comas Sola,e,9.9314,57.5246,53.3958,4.497189,0.1033457,0.55757786,213.2450,06/09.0/2020,2000,g  6.5,8.0
# From MPEC 2013-O31
33P/Daniel,e,22.3327,66.3579,20.6306,4.082141,0.1195012,0.45266020,166.6446,06/09.0/2020,2000,g 10.0,12.0
# From  15, 452
35P/Herschel-Rigollet,e,64.694,356.367,29.081,28.5685,0.006455,0.9734466,0.000,12/22.8695/2091,2000,g  9.0,4.0
# From MPC105240
36P/Whipple,e,9.9526,181.8633,200.7704,4.130303,0.1174171,0.26842602,0.9825,06/09.0/2020,2000,g  8.5,6.0
# From MPEC 2018-HA5
37P/Forbes,e,8.9571,314.5628,330.0767,3.459038,0.1532044,0.53415284,117.4651,06/09.0/2020,2000,g 10.5,4.8
# From MPEC 2018-S50
38P/Stephan-Oterma,e,18.3539,77.9953,359.5464,11.25737,0.0260945,0.85895224,15.0331,06/09.0/2020,2000,g  3.5,12.0
# From MPC115887
39P/Oterma,e,1.5612,299.2558,94.9808,7.407899,0.0488834,0.22385072,307.8041,06/09.0/2020,2000,g  7.0,6.0
# From MPC100283
40P/Vaisala,e,11.4702,133.7841,47.4650,4.950445,0.0894824,0.63004534,182.0578,06/09.0/2020,2000,g  5.5,12.0
# From MPC105240
41P/Tuttle-Giacobini-Kresak,e,9.2212,140.9987,62.2639,3.085945,0.1818117,0.66034436,209.7678,06/09.0/2020,2000,g 10.0,16.0
# From MPC 94283
42P/Neujmin,e,3.9889,150.1943,147.1636,4.872902,0.0916268,0.58546104,172.8346,06/09.0/2020,2000,g 13.0,6.0
# From MPC102956
43P/Wolf-Harrington,e,9.4034,244.4792,224.0152,4.305215,0.1103346,0.43941638,152.1538,06/09.0/2020,2000,g  8.0,6.0
# From MPEC 2020-HN5
44P/Reinmuth,e,5.8983,286.4829,58.1244,3.688862,0.1391123,0.42707008,264.8999,06/09.0/2020,2000,g  8.3,6.0
# From MPC103849
45P/Honda-Mrkos-Pajdusakova,e,4.3252,87.7005,327.9627,3.049906,0.1850438,0.81766168,233.1217,06/09.0/2020,2000,g 13.5,8.0
# From MPC114607
46P/Wirtanen,e,11.7440,82.1563,356.3667,3.091855,0.1812906,0.65836402,98.6620,06/09.0/2020,2000,g 14.0,6.0
# From NK 2718
47P/Ashbrook-Jackson,e,13.0338,356.9291,357.6004,4.125232,0.1176336,0.31785974,128.7623,06/09.0/2020,2000,g  9.0,4.0
# From MPEC 2015-M77
48P/Johnson,e,12.2082,110.1268,216.6114,3.500255,0.1505063,0.42733585,100.3226,06/09.0/2020,2000,g  9.0,4.0
# From MPEC 2015-M77
49P/Arend-Rigaux,e,19.0456,118.7983,332.9725,3.569942,0.1461209,0.59867400,101.5378,06/09.0/2020,2000,g  9.0,4.0
# From MPEC 2015-S97
50P/Arend,e,19.0973,355.1577,49.3467,4.089580,0.1191753,0.52851714,188.9301,06/09.0/2020,2000,g  9.5,6.0
# From NK 3013
51P-A/Harrington,e,5.4255,83.6747,269.2380,3.708426,0.1380129,0.54294491,243.3728,06/09.0/2020,2000,g 16.0,8.0
# From NK 3014
51P-A/Harrington,e,5.4248,83.6903,269.1987,3.709448,0.1379559,0.54301712,243.1201,06/09.0/2020,2000,g 10.0,8.0
# From NK 3014
51P-A/Harrington,e,5.4248,83.6903,269.1987,3.709430,0.1379569,0.54301402,243.1233,06/09.0/2020,2000,g 10.0,8.0
# From MPEC 2015-L08
51P-D/Harrington,e,5.4262,83.6802,269.1881,3.708516,0.1380079,0.54295912,243.3683,06/09.0/2020,2000,g 16.0,8.0
# From MPEC 2015-L08
51P-D/Harrington,e,5.4262,83.6792,269.1889,3.708503,0.1380086,0.54295969,243.3733,06/09.0/2020,2000,g 16.0,8.0
# From NK 3013
51P-D/Harrington,e,5.4255,83.6750,269.2376,3.708425,0.1380129,0.54294510,243.3730,06/09.0/2020,2000,g 16.0,8.0
# From NK 3013
51P-D/Harrington,e,5.4255,83.6750,269.2376,3.708426,0.1380129,0.54294523,243.3730,06/09.0/2020,2000,g 16.0,8.0
# From MPC 88330
52P/Harrington-Abell,e,10.2313,336.8380,139.6004,3.862185,0.1298538,0.53973495,297.2430,06/09.0/2020,2000,g 13.5,6.0
# From MPC100283
53P/Van Biesbroeck,e,6.6080,148.8370,134.3948,5.424318,0.0780165,0.55230584,117.0289,06/09.0/2020,2000,g  7.7,4.8
# From MPC 89011
54P/de Vico-Swift-NEAT,e,6.0613,358.8152,1.7626,3.793233,0.1334104,0.42538563,153.4473,06/09.0/2020,2000,g  9.0,4.0
# From MPC 31070
55P/Tempel-Tuttle,e,162.3767,235.4042,172.5421,10.34829,0.0296075,0.90671118,241.7239,06/09.0/2020,2000,g  9.0,4.0
# From MPC101100
56P/Slaughter-Burnham,e,8.1574,345.9812,44.0229,5.072188,0.0862802,0.50675782,122.6665,06/09.0/2020,2000,g  8.5,6.0
# From MPC 98565
57P/du Toit-Neujmin-Delporte,e,2.8502,188.7789,115.2183,3.447115,0.1539999,0.50075338,283.7060,06/09.0/2020,2000,g 12.5,6.0
# From MPEC 2020-HN5
58P/Jackson-Neujmin,e,13.1065,159.0823,200.4584,4.082919,0.1194670,0.66262264,1.4992,06/09.0/2020,2000,g  5.5,10.0
# From MPC111774
59P/Kearns-Kwee,e,9.3414,312.8332,127.6217,4.489674,0.1036053,0.47484739,65.4246,06/09.0/2020,2000,g  7.0,6.0
# From MPEC 2015-M77
60P/Tsuchinshan,e,3.6046,267.5878,216.7447,3.516388,0.1494716,0.53722290,81.5737,06/09.0/2020,2000,g  9.0,4.0
# From MPEC 2015-Q71
61P/Shajn-Schaldach,e,5.9988,162.9876,221.8965,3.684821,0.1393412,0.42379215,239.0954,06/09.0/2020,2000,g  6.0,10.0
# From MPC109147
62P/Tsuchinshan,e,6.2097,80.7323,36.6768,3.314532,0.1633318,0.65241748,148.5327,06/09.0/2020,2000,g  8.0,10.0
# From MPC 84320
63P/Wild,e,19.7383,358.0167,169.1526,5.604581,0.0742830,0.64908091,194.6301,06/09.0/2020,2000,g 10.5,6.0
# From MPC111774
64P/Swift-Gehrels,e,8.9505,300.0028,97.0981,4.455137,0.1048124,0.68756205,61.1149,06/09.0/2020,2000,g  9.5,12.0
# From MPC104795
65P/Gunn,e,9.1831,62.0239,213.7820,3.883920,0.1287652,0.24990732,124.2883,06/09.0/2020,2000,g  5.0,6.0
# From MPC109147
66P/du Toit,e,18.6617,21.8728,257.2932,6.062325,0.0660306,0.78697477,49.6401,06/09.0/2020,2000,g  9.0,4.0
# From MPC 89011
67P/Churyumov-Gerasimenko,e,3.8830,36.7501,21.8646,3.456155,0.1533961,0.65173215,281.7155,06/09.0/2020,2000,g 11.0,4.0
# From MPC 75716
68P/Klemola,e,11.1106,175.0804,153.0698,4.949178,0.0895168,0.63752831,19.0620,06/09.0/2020,2000,g 10.0,4.0
# From MPC114607
69P/Taylor,e,22.0330,104.8315,343.5148,3.889565,0.1284850,0.41305145,57.6529,06/09.0/2020,2000,g  9.5,12.0
# From MPC 92276
70P/Kojima,e,6.5982,119.2673,1.8616,3.675292,0.1398835,0.45336311,288.3423,06/09.0/2020,2000,g 11.0,6.0
# From MPC107051
71P/Clark,e,9.4414,59.4379,209.0131,3.138129,0.1772956,0.49422158,190.4855,06/09.0/2020,2000,g  9.8,6.0
# From MPC 89011
72P/Denning-Fujikawa,e,10.9302,26.6900,346.6692,4.311782,0.1100827,0.81801351,238.6509,06/09.0/2020,2000,g 17.5,10.0
# From MPC106348
73P/Schwassmann-Wachmann,e,11.2343,69.6506,199.4393,3.093076,0.1811833,0.68572497,213.7153,06/09.0/2020,2000,g 11.5,6.0
# From MPC106348
73P-T/Schwassmann-Wachmann,e,11.2364,69.6532,199.4208,3.094637,0.1810463,0.68592807,213.5546,06/09.0/2020,2000,g 11.5,6.0
# From MPC102956
74P/Smirnova-Chernykh,e,6.6033,76.9432,91.2280,4.208272,0.1141690,0.15366583,95.6844,06/09.0/2020,2000,g  5.0,6.0
# From MPC118097
